HAWK-11A                
1 62382U 24247F   26068.51231358  .00009457  00000+0  34106-3 0  9991
2 62382  44.9941 114.3328 0005466 327.3713  32.6832 15.28849427 67741
STARLINK-34153          
1 63967U 25099R   26068.32091520  .00024065  00000+0  88076-3 0  9998
2 63967  43.0017 177.9718 0002962 274.6015  85.4498 15.27593751 47286
